[{"OBJECT_NAME":"STARLINK-35859","OBJECT_ID":"2025-303Y","EPOCH":"2026-03-09T01:34:32.725920","MEAN_MOTION":15.27586117,"ECCENTRICITY":0.00016597,"INCLINATION":43.0016,"RA_OF_ASC_NODE":313.8994,"ARG_OF_PERICENTER":262.5678,"MEAN_ANOMALY":97.4985,"EPHEMERIS_TYPE":0,"CLASSIFICATION_TYPE":"U","NORAD_CAT_ID":67185,"ELEMENT_SET_NO":999,"REV_AT_EPOCH":1264,"BSTAR":0.0013759151,"MEAN_MOTION_DOT":0.00037802,"MEAN_MOTION_DDOT":0},{"OBJECT_NAME":"TRANSPORTER-1 OBJECT AA","OBJECT_ID":"2021-006AA","EPOCH":"2026-03-09T22:58:14.761920","MEAN_MOTION":15.29982294,"ECCENTRICITY":0.00086604,"INCLINATION":97.2381,"RA_OF_ASC_NODE":112.457,"ARG_OF_PERICENTER":185.709,"MEAN_ANOMALY":174.4054,"EPHEMERIS_TYPE":0,"CLASSIFICATION_TYPE":"U","NORAD_CAT_ID":47437,"ELEMENT_SET_NO":999,"REV_AT_EPOCH":28414,"BSTAR":0.0002197941,"MEAN_MOTION_DOT":6.312e-5,"MEAN_MOTION_DDOT":0}]
